{
  "norad_id": 64204,
  "name": "STARLINK-34331",
  "history": [
    {
      "epoch": "2026-05-04T14:28:46.137792Z",
      "apogee_km": 476.020235032096,
      "perigee_km": 474.44670117262103,
      "latitude_deg": -1.775785958103081e-05,
      "longitude_deg": 60.398569984332944,
      "height_km": 476.1248076334575,
      "semi_major_axis_km": 6853.370468102358,
      "eccentricity": 0.0001148,
      "inclination_deg": 53.1568,
      "raan_deg": 140.0811,
      "arg_perigee_deg": 89.5224,
      "mean_anomaly_deg": 270.5908,
      "mean_motion_rev_day": 15.30193838
    },
    {
      "epoch": "2026-05-05T01:27:08.391456Z",
      "apogee_km": 476.07395607527815,
      "perigee_km": 474.32662919914856,
      "latitude_deg": 5.774295862706089e-05,
      "longitude_deg": -106.76963787382519,
      "height_km": 476.22346157145984,
      "semi_major_axis_km": 6853.337292637213,
      "eccentricity": 0.00012748,
      "inclination_deg": 53.1569,
      "raan_deg": 137.9562,
      "arg_perigee_deg": 98.254,
      "mean_anomaly_deg": 261.8606,
      "mean_motion_rev_day": 15.30204949
    },
    {
      "epoch": "2026-05-06T11:56:18.706272Z",
      "apogee_km": 476.1115957474103,
      "perigee_km": 474.4067449160784,
      "latitude_deg": -2.895811502291334e-07,
      "longitude_deg": 87.84693711605789,
      "height_km": 476.11190273356414,
      "semi_major_axis_km": 6853.3961703317445,
      "eccentricity": 0.00012438,
      "inclination_deg": 53.1579,
      "raan_deg": 131.2821,
      "arg_perigee_deg": 86.9638,
      "mean_anomaly_deg": 273.1505,
      "mean_motion_rev_day": 15.3018523
    },
    {
      "epoch": "2026-05-07T11:27:04.896000Z",
      "apogee_km": 476.0729825432263,
      "perigee_km": 474.0334731314224,
      "latitude_deg": -2.0411342532125124e-06,
      "longitude_deg": 89.63773740914208,
      "height_km": 475.902156797363,
      "semi_major_axis_km": 6853.190227837324,
      "eccentricity": 0.0001488,
      "inclination_deg": 53.1582,
      "raan_deg": 126.731,
      "arg_perigee_deg": 87.2641,
      "mean_anomaly_deg": 272.853,
      "mean_motion_rev_day": 15.30254205
    },
    {
      "epoch": "2026-05-08T09:23:50.198208Z",
      "apogee_km": 476.2900995923537,
      "perigee_km": 474.17926111480483,
      "latitude_deg": 1.2561125218322321e-05,
      "longitude_deg": 115.3010993808103,
      "height_km": 476.5061886575623,
      "semi_major_axis_km": 6853.371680353579,
      "eccentricity": 0.000154,
      "inclination_deg": 53.1594,
      "raan_deg": 122.4844,
      "arg_perigee_deg": 110.7395,
      "mean_anomaly_deg": 249.3771,
      "mean_motion_rev_day": 15.30193432
    },
    {
      "epoch": "2026-05-09T16:44:55.351104Z",
      "apogee_km": 476.4593238253983,
      "perigee_km": 474.055153126541,
      "latitude_deg": 2.1352691617266385e-05,
      "longitude_deg": -2.3274250920252824,
      "height_km": 476.4220352055962,
      "semi_major_axis_km": 6853.394238475969,
      "eccentricity": 0.0001754,
      "inclination_deg": 53.1594,
      "raan_deg": 116.4149,
      "arg_perigee_deg": 102.8536,
      "mean_anomaly_deg": 257.2661,
      "mean_motion_rev_day": 15.30185877
    },
    {
      "epoch": "2026-05-10T16:15:43.682688Z",
      "apogee_km": 476.24071345279935,
      "perigee_km": 474.2230816493602,
      "latitude_deg": -2.8350775908340695e-05,
      "longitude_deg": -0.5439070737405705,
      "height_km": 476.1097084720248,
      "semi_major_axis_km": 6853.3688975510795,
      "eccentricity": 0.0001472,
      "inclination_deg": 53.1595,
      "raan_deg": 111.8655,
      "arg_perigee_deg": 88.8678,
      "mean_anomaly_deg": 271.2491,
      "mean_motion_rev_day": 15.30194364
    },
    {
      "epoch": "2026-05-11T15:46:31.374048Z",
      "apogee_km": 476.24669262116913,
      "perigee_km": 474.1427197873645,
      "latitude_deg": 3.130957538363642e-05,
      "longitude_deg": 1.2404682091531154,
      "height_km": 476.0929015422135,
      "semi_major_axis_km": 6853.331706204267,
      "eccentricity": 0.0001535,
      "inclination_deg": 53.1592,
      "raan_deg": 107.3142,
      "arg_perigee_deg": 90.0314,
      "mean_anomaly_deg": 270.0863,
      "mean_motion_rev_day": 15.3020682
    },
    {
      "epoch": "2026-05-12T15:17:19.182912Z",
      "apogee_km": 476.4015623205232,
      "perigee_km": 474.02756133950516,
      "latitude_deg": -1.2439035788506111e-05,
      "longitude_deg": 3.0240761946482424,
      "height_km": 476.09203836325014,
      "semi_major_axis_km": 6853.351561830013,
      "eccentricity": 0.0001732,
      "inclination_deg": 53.1596,
      "raan_deg": 102.7627,
      "arg_perigee_deg": 89.0389,
      "mean_anomaly_deg": 271.081,
      "mean_motion_rev_day": 15.3020017
    },
    {
      "epoch": "2026-05-13T05:23:47.954112Z",
      "apogee_km": 476.23923944722355,
      "perigee_km": 474.19282823132016,
      "latitude_deg": 5.659879237392062e-05,
      "longitude_deg": 148.0958533211477,
      "height_km": 476.0366790577967,
      "semi_major_axis_km": 6853.353033839272,
      "eccentricity": 0.0001493,
      "inclination_deg": 53.1599,
      "raan_deg": 100.0337,
      "arg_perigee_deg": 85.6781,
      "mean_anomaly_deg": 274.4391,
      "mean_motion_rev_day": 15.30199677
    },
    {
      "epoch": "2026-05-14T06:28:39.037728Z",
      "apogee_km": 476.27005798801383,
      "perigee_km": 474.1179749822177,
      "latitude_deg": 4.9812630788398074e-05,
      "longitude_deg": 125.99986625128605,
      "height_km": 475.8608083835594,
      "semi_major_axis_km": 6853.3310164851155,
      "eccentricity": 0.00015701,
      "inclination_deg": 53.159,
      "raan_deg": 95.1806,
      "arg_perigee_deg": 77.6139,
      "mean_anomaly_deg": 282.5038,
      "mean_motion_rev_day": 15.30207051
    }
  ]
}